[{"OBJECT_NAME":"FLOCK 4BE-27","OBJECT_ID":"2024-149AX","EPOCH":"2026-03-09T18:04:53.053248","MEAN_MOTION":15.32593322,"ECCENTRICITY":0.00027324,"INCLINATION":97.3862,"RA_OF_ASC_NODE":150.6783,"ARG_OF_PERICENTER":305.898,"MEAN_ANOMALY":54.2008,"EPHEMERIS_TYPE":0,"CLASSIFICATION_TYPE":"U","NORAD_CAT_ID":60513,"ELEMENT_SET_NO":999,"REV_AT_EPOCH":8690,"BSTAR":0.00036576028,"MEAN_MOTION_DOT":0.00011439,"MEAN_MOTION_DDOT":0},{"OBJECT_NAME":"STARLINK-35747","OBJECT_ID":"2025-244B","EPOCH":"2026-03-09T18:04:51.790944","MEAN_MOTION":15.30181463,"ECCENTRICITY":8.528e-5,"INCLINATION":53.1587,"RA_OF_ASC_NODE":229.9645,"ARG_OF_PERICENTER":97.5769,"MEAN_ANOMALY":262.5329,"EPHEMERIS_TYPE":0,"CLASSIFICATION_TYPE":"U","NORAD_CAT_ID":66207,"ELEMENT_SET_NO":999,"REV_AT_EPOCH":2166,"BSTAR":0.00072273941,"MEAN_MOTION_DOT":0.00021095,"MEAN_MOTION_DDOT":0}]
